{"type": "FeatureCollection", "features": [ {"type": "Feature", "properties": {"norad_id": 66445, "name": "STARLINK-34698", "group": "last-30-days", "lat": -36.51787228014352, "lon": -25.833774635756086, "alt_km": 417.02447824269075, "timestamp": "2025-12-03T10:52:56.221569+00:00", "meta": {"OBJECT_NAME": "STARLINK-34698", "OBJECT_ID": "2025-259Z", "EPOCH": "2025-12-03T04:00:01.998720", "MEAN_MOTION": 15.50681939, "ECCENTRICITY": 0.0001599, "INCLINATION": 43.0002, "RA_OF_ASC_NODE": 103.2273, "ARG_OF_PERICENTER": 264.8186, "MEAN_ANOMALY": 173.3496, "EPHEMERIS_TYPE": 0, "CLASSIFICATION_TYPE": "U", "NORAD_CAT_ID": 66445, "ELEMENT_SET_NO": 999, "REV_AT_EPOCH": 463, "BSTAR": -0.0020091, "MEAN_MOTION_DOT": -0.00116893, "MEAN_MOTION_DDOT": 0}, "tle": {"line1": "1 66445U 25259Z   25337.16668980 -.00116893  00000+0 -20091-2 0  9995", "line2": "2 66445  43.0002 103.2273 0001599 264.8186 173.3496 15.50681939  4636"}}, "geometry": {"type": "Point", "coordinates": [-25.833774635756086, -36.51787228014352]}}, {"type": "Feature", "properties": {"norad_id": 66446, "name": "STARLINK-34986", "group": "last-30-days", "lat": -37.29808577638863, "lon": -23.626785927222787, "alt_km": 417.0796553417249, "timestamp": "2025-12-03T10:52:56.221580+00:00", "meta": {"OBJECT_NAME": "STARLINK-34986", "OBJECT_ID": "2025-259AA", "EPOCH": "2025-12-03T04:00:01.998720", "MEAN_MOTION": 15.50693407, "ECCENTRICITY": 0.0001625, "INCLINATION": 43.0003, "RA_OF_ASC_NODE": 103.2211, "ARG_OF_PERICENTER": 267.2623, "MEAN_ANOMALY": 172.8422, "EPHEMERIS_TYPE": 0, "CLASSIFICATION_TYPE": "U", "NORAD_CAT_ID": 66446, "ELEMENT_SET_NO": 999, "REV_AT_EPOCH": 474, "BSTAR": -0.0026559, "MEAN_MOTION_DOT": -0.00153761, "MEAN_MOTION_DDOT": 0}, "tle": {"line1": "1 66446U 25259AA  25337.16668980 -.00153761  00000+0 -26559-2 0  9996", "line2": "2 66446  43.0003 103.2211 0001625 267.2623 172.8422 15.50693407  4741"}}, "geometry": {"type": "Point", "coordinates": [-23.626785927222787, -37.29808577638863]}}, {"type": "Feature", "properties": {"norad_id": 66447, "name": "STARLINK-34851", "group": "last-30-days", "lat": -38.72582054448601, "lon": -19.08941787611984, "alt_km": 417.16123484223954, "timestamp": "2025-12-03T10:52:56.221590+00:00", "meta": {"OBJECT_NAME": "STARLINK-34851", "OBJECT_ID": "2025-259AB", "EPOCH": "2025-12-03T04:00:01.998720", "MEAN_MOTION": 15.50630784, "ECCENTRICITY": 0.0001861, "INCLINATION": 43.0002, "RA_OF_ASC_NODE": 103.2118, "ARG_OF_PERICENTER": 273.0106, "MEAN_ANOMALY": 171.0132, "EPHEMERIS_TYPE": 0, "CLASSIFICATION_TYPE": "U", "NORAD_CAT_ID": 66447, "ELEMENT_SET_NO": 999, "REV_AT_EPOCH": 463, "BSTAR": -0.0021733, "MEAN_MOTION_DOT": -0.00126046, "MEAN_MOTION_DDOT": 0}, "tle": {"line1": "1 66447U 25259AB  25337.16668980 -.00126046  00000+0 -21733-2 0  9992", "line2": "2 66447  43.0002 103.2118 0001861 273.0106 171.0132 15.50630784  4636"}}, "geometry": {"type": "Point", "coordinates": [-19.08941787611984, -38.72582054448601]}}, {"type": "Feature", "properties": {"norad_id": 66448, "name": "STARLINK-35355", "group": "last-30-days", "lat": -39.36348100546563, "lon": -16.78807786777901, "alt_km": 417.07199430888704, "timestamp": "2025-12-03T10:52:56.221600+00:00", "meta": {"OBJECT_NAME": "STARLINK-35355", "OBJECT_ID": "2025-259AC", "EPOCH": "2025-12-03T04:00:01.998720", "MEAN_MOTION": 15.50695772, "ECCENTRICITY": 0.0001753, "INCLINATION": 43.0003, "RA_OF_ASC_NODE": 103.2075, "ARG_OF_PERICENTER": 264.5413, "MEAN_ANOMALY": 181.332, "EPHEMERIS_TYPE": 0, "CLASSIFICATION_TYPE": "U", "NORAD_CAT_ID": 66448, "ELEMENT_SET_NO": 999, "REV_AT_EPOCH": 474, "BSTAR": -0.0031531, "MEAN_MOTION_DOT": -0.00181851, "MEAN_MOTION_DDOT": 0}, "tle": {"line1": "1 66448U 25259AC  25337.16668980 -.00181851  00000+0 -31531-2 0  9995", "line2": "2 66448  43.0003 103.2075 0001753 264.5413 181.3320 15.50695772  4749"}}, "geometry": {"type": "Point", "coordinates": [-16.78807786777901, -39.36348100546563]}}, {"type": "Feature", "properties": {"norad_id": 66449, "name": "STARLINK-34720", "group": "last-30-days", "lat": -39.97925478261418, "lon": -14.343870629754095, "alt_km": 417.29710886612247, "timestamp": "2025-12-03T10:52:56.221611+00:00", "meta": {"OBJECT_NAME": "STARLINK-34720", "OBJECT_ID": "2025-259AD", "EPOCH": "2025-12-03T04:00:01.998720", "MEAN_MOTION": 15.50730103, "ECCENTRICITY": 0.0001536, "INCLINATION": 43.0001, "RA_OF_ASC_NODE": 103.2017, "ARG_OF_PERICENTER": 260.2932, "MEAN_ANOMALY": 187.5632, "EPHEMERIS_TYPE": 0, "CLASSIFICATION_TYPE": "U", "NORAD_CAT_ID": 66449, "ELEMENT_SET_NO": 999, "REV_AT_EPOCH": 463, "BSTAR": -0.0051463, "MEAN_MOTION_DOT": -0.00292817, "MEAN_MOTION_DDOT": 0}, "tle": {"line1": "1 66449U 25259AD  25337.16668980 -.00292817  00000+0 -51463-2 0  9997", "line2": "2 66449  43.0001 103.2017 0001536 260.2932 187.5632 15.50730103  4632"}}, "geometry": {"type": "Point", "coordinates": [-14.343870629754095, -39.97925478261418]}}, {"type": "Feature", "properties": {"norad_id": 66450, "name": "STARLINK-35334", "group": "last-30-days", "lat": -40.506985037717065, "lon": -12.024316677240162, "alt_km": 417.2047686330434, "timestamp": "2025-12-03T10:52:56.221621+00:00", "meta": {"OBJECT_NAME": "STARLINK-35334", "OBJECT_ID": "2025-259AE", "EPOCH": "2025-12-03T04:00:01.998720", "MEAN_MOTION": 15.5071238, "ECCENTRICITY": 0.0001664, "INCLINATION": 43.0003, "RA_OF_ASC_NODE": 103.1963, "ARG_OF_PERICENTER": 263.8992, "MEAN_ANOMALY": 185.814, "EPHEMERIS_TYPE": 0, "CLASSIFICATION_TYPE": "U", "NORAD_CAT_ID": 66450, "ELEMENT_SET_NO": 999, "REV_AT_EPOCH": 474, "BSTAR": -0.0041886, "MEAN_MOTION_DOT": -0.00239839, "MEAN_MOTION_DDOT": 0}, "tle": {"line1": "1 66450U 25259AE  25337.16668980 -.00239839  00000+0 -41886-2 0  9992", "line2": "2 66450  43.0003 103.1963 0001664 263.8992 185.8140 15.50712380  4746"}}, "geometry": {"type": "Point", "coordinates": [-12.024316677240162, -40.506985037717065]}}, {"type": "Feature", "properties": {"norad_id": 66454, "name": "VIASAT-3 F2", "group": "last-30-days", "lat": -5.127459482628099, "lon": -133.34234946507794, "alt_km": 18598.076068933296, "timestamp": "2025-12-03T10:52:56.221633+00:00", "meta": {"OBJECT_NAME": "VIASAT-3 F2", "OBJECT_ID": "2025-261A", "EPOCH": "2025-12-02T04:32:02.632704", "MEAN_MOTION": 2.28150311, "ECCENTRICITY": 0.23416455, "INCLINATION": 5.5753, "RA_OF_ASC_NODE": 293.3183, "ARG_OF_PERICENTER": 183.8775, "MEAN_ANOMALY": 124.0264, "EPHEMERIS_TYPE": 0, "CLASSIFICATION_TYPE": "U", "NORAD_CAT_ID": 66454, "ELEMENT_SET_NO": 999, "REV_AT_EPOCH": 40, "BSTAR": 0, "MEAN_MOTION_DOT": -4.7e-07, "MEAN_MOTION_DDOT": 0}, "tle": {"line1": "1 66454U 25261A   25336.18891936 -.00000047  00000+0  00000+0 0  9995", "line2": "2 66454   5.5753 293.3183 2341645 183.8775 124.0264  2.28150311   401"}}, "geometry": {"type": "Point", "coordinates": [-133.34234946507794, -5.127459482628099]}}, {"type": "Feature", "properties": {"norad_id": 66455, "name": "ATLAS 5 CENTAUR R/B", "group": "last-30-days", "lat": -5.950591949659551, "lon": -142.03683861544067, "alt_km": 17722.26022397826, "timestamp": "2025-12-03T10:52:56.221645+00:00", "meta": {"OBJECT_NAME": "ATLAS 5 CENTAUR R/B", "OBJECT_ID": "2025-261B", "EPOCH": "2025-12-02T12:30:35.878176", "MEAN_MOTION": 2.28259432, "ECCENTRICITY": 0.23296725, "INCLINATION": 6.1594, "RA_OF_ASC_NODE": 292.6378, "ARG_OF_PERICENTER": 184.4299, "MEAN_ANOMALY": 27.8759, "EPHEMERIS_TYPE": 0, "CLASSIFICATION_TYPE": "U", "NORAD_CAT_ID": 66455, "ELEMENT_SET_NO": 999, "REV_AT_EPOCH": 41, "BSTAR": 0, "MEAN_MOTION_DOT": -4.9e-07, "MEAN_MOTION_DDOT": 0}, "tle": {"line1": "1 66455U 25261B   25336.52124859 -.00000049  00000+0  00000+0 0  9999", "line2": "2 66455   6.1594 292.6378 2329672 184.4299  27.8759  2.28259432   418"}}, "geometry": {"type": "Point", "coordinates": [-142.03683861544067, -5.950591949659551]}}, {"type": "Feature", "properties": {"norad_id": 66456, "name": "STARLINK-35643", "group": "last-30-days", "lat": -41.39450849885067, "lon": 16.59053972228206, "alt_km": 390.1406696035692, "timestamp": "2025-12-03T10:52:56.221658+00:00", "meta": {"OBJECT_NAME": "STARLINK-35643", "OBJECT_ID": "2025-262A", "EPOCH": "2025-12-03T04:00:01.998720", "MEAN_MOTION": 15.61249677, "ECCENTRICITY": 0.0001565, "INCLINATION": 42.9999, "RA_OF_ASC_NODE": 127.2222, "ARG_OF_PERICENTER": 280.0571, "MEAN_ANOMALY": 162.9832, "EPHEMERIS_TYPE": 0, "CLASSIFICATION_TYPE": "U", "NORAD_CAT_ID": 66456, "ELEMENT_SET_NO": 999, "REV_AT_EPOCH": 410, "BSTAR": -0.027786, "MEAN_MOTION_DOT": -0.02152553, "MEAN_MOTION_DDOT": 0}, "tle": {"line1": "1 66456U 25262A   25337.16668980 -.02152553  00000+0 -27786-1 0  9993", "line2": "2 66456  42.9999 127.2222 0001565 280.0571 162.9832 15.61249677  4103"}}, "geometry": {"type": "Point", "coordinates": [16.59053972228206, -41.39450849885067]}}, {"type": "Feature", "properties": {"norad_id": 66457, "name": "STARLINK-35466", "group": "last-30-days", "lat": -42.132451309297245, "lon": 21.621298606553257, "alt_km": 390.04817735560937, "timestamp": "2025-12-03T10:52:56.221669+00:00", "meta": {"OBJECT_NAME": "STARLINK-35466", "OBJECT_ID": "2025-262B", "EPOCH": "2025-12-03T04:00:01.998720", "MEAN_MOTION": 15.61264717, "ECCENTRICITY": 0.0001702, "INCLINATION": 42.9999, "RA_OF_ASC_NODE": 127.2123, "ARG_OF_PERICENTER": 280.128, "MEAN_ANOMALY": 166.7413, "EPHEMERIS_TYPE": 0, "CLASSIFICATION_TYPE": "U", "NORAD_CAT_ID": 66457, "ELEMENT_SET_NO": 999, "REV_AT_EPOCH": 410, "BSTAR": -0.028101, "MEAN_MOTION_DOT": -0.02175429, "MEAN_MOTION_DDOT": 0}, "tle": {"line1": "1 66457U 25262B   25337.16668980 -.02175429  00000+0 -28101-1 0  9993", "line2": "2 66457  42.9999 127.2123 0001702 280.1280 166.7413 15.61264717  4104"}}, "geometry": {"type": "Point", "coordinates": [21.621298606553257, -42.132451309297245]}}]}